[{"OBJECT_NAME":"QIANFAN-69","OBJECT_ID":"2025-016Q","EPOCH":"2026-03-05T17:21:33.341184","MEAN_MOTION":13.51005328,"ECCENTRICITY":0.001796,"INCLINATION":88.9666,"RA_OF_ASC_NODE":94.3623,"ARG_OF_PERICENTER":104.3475,"MEAN_ANOMALY":255.9672,"EPHEMERIS_TYPE":0,"CLASSIFICATION_TYPE":"U","NORAD_CAT_ID":62799,"ELEMENT_SET_NO":999,"REV_AT_EPOCH":5848,"BSTAR":5.5411e-5,"MEAN_MOTION_DOT":4.8e-7,"MEAN_MOTION_DDOT":0},{"OBJECT_NAME":"QIANFAN-70","OBJECT_ID":"2025-016R","EPOCH":"2026-03-05T17:45:11.882304","MEAN_MOTION":13.50997092,"ECCENTRICITY":0.0017573,"INCLINATION":88.9687,"RA_OF_ASC_NODE":94.5167,"ARG_OF_PERICENTER":95.8616,"MEAN_ANOMALY":264.4539,"EPHEMERIS_TYPE":0,"CLASSIFICATION_TYPE":"U","NORAD_CAT_ID":62800,"ELEMENT_SET_NO":999,"REV_AT_EPOCH":5844,"BSTAR":5.8844e-5,"MEAN_MOTION_DOT":5.0e-7,"MEAN_MOTION_DDOT":0},{"OBJECT_NAME":"QIANFAN-71","OBJECT_ID":"2025-016S","EPOCH":"2026-03-05T17:39:11.566656","MEAN_MOTION":13.50996551,"ECCENTRICITY":0.0017848,"INCLINATION":88.9681,"RA_OF_ASC_NODE":94.4915,"ARG_OF_PERICENTER":107.4666,"MEAN_ANOMALY":252.8438,"EPHEMERIS_TYPE":0,"CLASSIFICATION_TYPE":"U","NORAD_CAT_ID":62801,"ELEMENT_SET_NO":999,"REV_AT_EPOCH":5844,"BSTAR":4.1309e-5,"MEAN_MOTION_DOT":3.9e-7,"MEAN_MOTION_DDOT":0},{"OBJECT_NAME":"QIANFAN-72","OBJECT_ID":"2025-016T","EPOCH":"2026-03-05T18:02:54.427776","MEAN_MOTION":13.5099622,"ECCENTRICITY":0.0021055,"INCLINATION":88.9672,"RA_OF_ASC_NODE":94.4951,"ARG_OF_PERICENTER":114.124,"MEAN_ANOMALY":246.2116,"EPHEMERIS_TYPE":0,"CLASSIFICATION_TYPE":"U","NORAD_CAT_ID":62802,"ELEMENT_SET_NO":999,"REV_AT_EPOCH":5843,"BSTAR":1.7469e-5,"MEAN_MOTION_DOT":2.4e-7,"MEAN_MOTION_DDOT":0},{"OBJECT_NAME":"QIANFAN-73","OBJECT_ID":"2025-046A","EPOCH":"2026-03-05T16:54:55.638432","MEAN_MOTION":13.50998433,"ECCENTRICITY":0.0013165,"INCLINATION":88.9759,"RA_OF_ASC_NODE":311.4547,"ARG_OF_PERICENTER":242.6755,"MEAN_ANOMALY":117.3057,"EPHEMERIS_TYPE":0,"CLASSIFICATION_TYPE":"U","NORAD_CAT_ID":63159,"ELEMENT_SET_NO":999,"REV_AT_EPOCH":5861,"BSTAR":0.00027966,"MEAN_MOTION_DOT":1.93e-6,"MEAN_MOTION_DDOT":0},{"OBJECT_NAME":"QIANFAN-74","OBJECT_ID":"2025-046B","EPOCH":"2026-03-05T18:17:57.755328","MEAN_MOTION":13.50998314,"ECCENTRICITY":0.0001899,"INCLINATION":88.9759,"RA_OF_ASC_NODE":311.3376,"ARG_OF_PERICENTER":78.5432,"MEAN_ANOMALY":281.5932,"EPHEMERIS_TYPE":0,"CLASSIFICATION_TYPE":"U","NORAD_CAT_ID":63160,"ELEMENT_SET_NO":999,"REV_AT_EPOCH":5868,"BSTAR":0.00028656,"MEAN_MOTION_DOT":1.97e-6,"MEAN_MOTION_DDOT":0},{"OBJECT_NAME":"QIANFAN-75","OBJECT_ID":"2025-046C","EPOCH":"2026-03-05T17:59:26.410272","MEAN_MOTION":13.50998333,"ECCENTRICITY":0.001434,"INCLINATION":88.9763,"RA_OF_ASC_NODE":311.5738,"ARG_OF_PERICENTER":246.1354,"MEAN_ANOMALY":113.8295,"EPHEMERIS_TYPE":0,"CLASSIFICATION_TYPE":"U","NORAD_CAT_ID":63161,"ELEMENT_SET_NO":999,"REV_AT_EPOCH":5855,"BSTAR":0.00010569,"MEAN_MOTION_DOT":8.0e-7,"MEAN_MOTION_DDOT":0},{"OBJECT_NAME":"QIANFAN-76","OBJECT_ID":"2025-046D","EPOCH":"2026-03-05T17:54:08.790912","MEAN_MOTION":13.51014735,"ECCENTRICITY":0.001188,"INCLINATION":88.9761,"RA_OF_ASC_NODE":311.554,"ARG_OF_PERICENTER":246.9103,"MEAN_ANOMALY":113.0796,"EPHEMERIS_TYPE":0,"CLASSIFICATION_TYPE":"U","NORAD_CAT_ID":63162,"ELEMENT_SET_NO":999,"REV_AT_EPOCH":5856,"BSTAR":0.00033996,"MEAN_MOTION_DOT":2.32e-6,"MEAN_MOTION_DDOT":0},{"OBJECT_NAME":"QIANFAN-77","OBJECT_ID":"2025-046E","EPOCH":"2026-03-05T18:03:18.746784","MEAN_MOTION":13.9617487,"ECCENTRICITY":0.001448,"INCLINATION":88.9756,"RA_OF_ASC_NODE":308.8783,"ARG_OF_PERICENTER":173.9777,"MEAN_ANOMALY":186.1577,"EPHEMERIS_TYPE":0,"CLASSIFICATION_TYPE":"U","NORAD_CAT_ID":63163,"ELEMENT_SET_NO":999,"REV_AT_EPOCH":6003,"BSTAR":0.00033044,"MEAN_MOTION_DOT":4.68e-6,"MEAN_MOTION_DDOT":0},{"OBJECT_NAME":"QIANFAN-78","OBJECT_ID":"2025-046F","EPOCH":"2026-03-05T17:06:47.003328","MEAN_MOTION":13.509987,"ECCENTRICITY":0.0013205,"INCLINATION":88.9759,"RA_OF_ASC_NODE":311.4207,"ARG_OF_PERICENTER":249.8141,"MEAN_ANOMALY":110.159,"EPHEMERIS_TYPE":0,"CLASSIFICATION_TYPE":"U","NORAD_CAT_ID":63164,"ELEMENT_SET_NO":999,"REV_AT_EPOCH":5863,"BSTAR":0.00033835,"MEAN_MOTION_DOT":2.3e-6,"MEAN_MOTION_DDOT":0},{"OBJECT_NAME":"QIANFAN-79","OBJECT_ID":"2025-046G","EPOCH":"2026-03-05T17:48:27.556704","MEAN_MOTION":13.51008875,"ECCENTRICITY":0.0013065,"INCLINATION":88.9764,"RA_OF_ASC_NODE":311.5285,"ARG_OF_PERICENTER":247.9069,"MEAN_ANOMALY":112.0696,"EPHEMERIS_TYPE":0,"CLASSIFICATION_TYPE":"U","NORAD_CAT_ID":63165,"ELEMENT_SET_NO":999,"REV_AT_EPOCH":5858,"BSTAR":0.00032753,"MEAN_MOTION_DOT":2.24e-6,"MEAN_MOTION_DDOT":0},{"OBJECT_NAME":"QIANFAN-80","OBJECT_ID":"2025-046H","EPOCH":"2026-03-05T18:11:55.736736","MEAN_MOTION":13.5099843,"ECCENTRICITY":0.001189,"INCLINATION":88.976,"RA_OF_ASC_NODE":311.2314,"ARG_OF_PERICENTER":252.5436,"MEAN_ANOMALY":107.4415,"EPHEMERIS_TYPE":0,"CLASSIFICATION_TYPE":"U","NORAD_CAT_ID":63166,"ELEMENT_SET_NO":999,"REV_AT_EPOCH":5874,"BSTAR":0.00029738,"MEAN_MOTION_DOT":2.04e-6,"MEAN_MOTION_DDOT":0},{"OBJECT_NAME":"QIANFAN-81","OBJECT_ID":"2025-046J","EPOCH":"2026-03-05T17:40:28.301088","MEAN_MOTION":13.50984309,"ECCENTRICITY":0.001299,"INCLINATION":88.976,"RA_OF_ASC_NODE":311.3015,"ARG_OF_PERICENTER":240.2813,"MEAN_ANOMALY":119.7046,"EPHEMERIS_TYPE":0,"CLASSIFICATION_TYPE":"U","NORAD_CAT_ID":63167,"ELEMENT_SET_NO":999,"REV_AT_EPOCH":5869,"BSTAR":0.0002945,"MEAN_MOTION_DOT":2.02e-6,"MEAN_MOTION_DDOT":0},{"OBJECT_NAME":"QIANFAN-82","OBJECT_ID":"2025-046K","EPOCH":"2026-03-05T16:43:06.842208","MEAN_MOTION":13.50999734,"ECCENTRICITY":0.001102,"INCLINATION":88.976,"RA_OF_ASC_NODE":311.3497,"ARG_OF_PERICENTER":248.315,"MEAN_ANOMALY":111.6828,"EPHEMERIS_TYPE":0,"CLASSIFICATION_TYPE":"U","NORAD_CAT_ID":63168,"ELEMENT_SET_NO":999,"REV_AT_EPOCH":5867,"BSTAR":0.00029686,"MEAN_MOTION_DOT":2.04e-6,"MEAN_MOTION_DDOT":0},{"OBJECT_NAME":"QIANFAN-83","OBJECT_ID":"2025-046L","EPOCH":"2026-03-05T17:09:45.923040","MEAN_MOTION":13.62021185,"ECCENTRICITY":0.0012485,"INCLINATION":88.976,"RA_OF_ASC_NODE":310.9611,"ARG_OF_PERICENTER":226.0204,"MEAN_ANOMALY":133.9924,"EPHEMERIS_TYPE":0,"CLASSIFICATION_TYPE":"U","NORAD_CAT_ID":63169,"ELEMENT_SET_NO":999,"REV_AT_EPOCH":5889,"BSTAR":0.00034996,"MEAN_MOTION_DOT":2.82e-6,"MEAN_MOTION_DDOT":0},{"OBJECT_NAME":"QIANFAN-84","OBJECT_ID":"2025-046M","EPOCH":"2026-03-05T17:23:11.366304","MEAN_MOTION":13.50961289,"ECCENTRICITY":0.0014054,"INCLINATION":88.9759,"RA_OF_ASC_NODE":311.4789,"ARG_OF_PERICENTER":244.6197,"MEAN_ANOMALY":115.35,"EPHEMERIS_TYPE":0,"CLASSIFICATION_TYPE":"U","NORAD_CAT_ID":63170,"ELEMENT_SET_NO":999,"REV_AT_EPOCH":5860,"BSTAR":-0.00013948,"MEAN_MOTION_DOT":-7.8e-7,"MEAN_MOTION_DDOT":0},{"OBJECT_NAME":"QIANFAN-85","OBJECT_ID":"2025-046N","EPOCH":"2026-03-05T17:18:38.144448","MEAN_MOTION":13.51002485,"ECCENTRICITY":0.0011443,"INCLINATION":88.976,"RA_OF_ASC_NODE":311.3509,"ARG_OF_PERICENTER":246.951,"MEAN_ANOMALY":113.0435,"EPHEMERIS_TYPE":0,"CLASSIFICATION_TYPE":"U","NORAD_CAT_ID":63171,"ELEMENT_SET_NO":999,"REV_AT_EPOCH":5867,"BSTAR":0.00030417,"MEAN_MOTION_DOT":2.08e-6,"MEAN_MOTION_DDOT":0}]
