QIANFAN-69              
1 62799U 25016Q   26064.72330256  .00000048  00000+0  55411-4 0  9994
2 62799  88.9666  94.3623 0017960 104.3475 255.9672 13.51005328 58481
QIANFAN-70              
1 62800U 25016R   26064.73972086  .00000050  00000+0  58844-4 0  9997
2 62800  88.9687  94.5167 0017573  95.8616 264.4539 13.50997092 58443
QIANFAN-71              
1 62801U 25016S   26064.73555054  .00000039  00000+0  41309-4 0  9995
2 62801  88.9681  94.4915 0017848 107.4666 252.8438 13.50996551 58446
QIANFAN-72              
1 62802U 25016T   26064.75201884  .00000024  00000+0  17469-4 0  9991
2 62802  88.9672  94.4951 0021055 114.1240 246.2116 13.50996220 58437
QIANFAN-73              
1 63159U 25046A   26064.70481063  .00000193  00000+0  27966-3 0  9993
2 63159  88.9759 311.4547 0013165 242.6755 117.3057 13.50998433 58613
QIANFAN-74              
1 63160U 25046B   26064.76247402  .00000197  00000+0  28656-3 0  9999
2 63160  88.9759 311.3376 0001899  78.5432 281.5932 13.50998314 58684
QIANFAN-75              
1 63161U 25046C   26064.74961123  .00000080  00000+0  10569-3 0  9996
2 63161  88.9763 311.5738 0014340 246.1354 113.8295 13.50998333 58551
QIANFAN-76              
1 63162U 25046D   26064.74593508  .00000232  00000+0  33996-3 0  9993
2 63162  88.9761 311.5540 0011880 246.9103 113.0796 13.51014735 58562
QIANFAN-77              
1 63163U 25046E   26064.75230031  .00000468  00000+0  33044-3 0  9999
2 63163  88.9756 308.8783 0014480 173.9777 186.1577 13.96174870 60039
QIANFAN-78              
1 63164U 25046F   26064.71304402  .00000230  00000+0  33835-3 0  9995
2 63164  88.9759 311.4207 0013205 249.8141 110.1590 13.50998700 58637
QIANFAN-79              
1 63165U 25046G   26064.74198561  .00000224  00000+0  32753-3 0  9997
2 63165  88.9764 311.5285 0013065 247.9069 112.0696 13.51008875 58581
QIANFAN-80              
1 63166U 25046H   26064.75828399  .00000204  00000+0  29738-3 0  9995
2 63166  88.9760 311.2314 0011890 252.5436 107.4415 13.50998430 58741
QIANFAN-81              
1 63167U 25046J   26064.73643867  .00000202  00000+0  29450-3 0  9998
2 63167  88.9760 311.3015 0012990 240.2813 119.7046 13.50984309 58696
QIANFAN-82              
1 63168U 25046K   26064.69660697  .00000204  00000+0  29686-3 0  9997
2 63168  88.9760 311.3497 0011020 248.3150 111.6828 13.50999734 58672
QIANFAN-83              
1 63169U 25046L   26064.71511485  .00000282  00000+0  34996-3 0  9997
2 63169  88.9760 310.9611 0012485 226.0204 133.9924 13.62021185 58892
QIANFAN-84              
1 63170U 25046M   26064.72443711 -.00000078  00000+0 -13948-3 0  9995
2 63170  88.9759 311.4789 0014054 244.6197 115.3500 13.50961289 58603
QIANFAN-85              
1 63171U 25046N   26064.72127482  .00000208  00000+0  30417-3 0  9993
2 63171  88.9760 311.3509 0011443 246.9510 113.0435 13.51002485 58672
